CCSDS_OMM_VERS = 2.0
CREATION_DATE  = 
ORIGINATOR     = 

OBJECT_NAME    = SL-14 R/B
OBJECT_ID      = 1986-046B
CENTER_NAME    = EARTH
REF_FRAME      = TEME
TIME_SYSTEM    = UTC
MEAN_ELEMENT_THEORY = SGP/SGP4

EPOCH          = 2026-03-07T02:42:53.823744
MEAN_MOTION    = 14.85587022
ECCENTRICITY   = .0021818
INCLINATION    = 82.4782
RA_OF_ASC_NODE = 82.6170
ARG_OF_PERICENTER = 234.3727
MEAN_ANOMALY   = 125.5457

EPHEMERIS_TYPE = 0
CLASSIFICATION_TYPE = U
NORAD_CAT_ID   = 16792
ELEMENT_SET_NO = 999
REV_AT_EPOCH   = 12602
BSTAR          = .6011E-4
MEAN_MOTION_DOT = .546E-5
MEAN_MOTION_DDOT = 0

CCSDS_OMM_VERS = 2.0
CREATION_DATE  = 
ORIGINATOR     = 

OBJECT_NAME    = SL-14 R/B
OBJECT_ID      = 1986-055B
CENTER_NAME    = EARTH
REF_FRAME      = TEME
TIME_SYSTEM    = UTC
MEAN_ELEMENT_THEORY = SGP/SGP4

EPOCH          = 2026-03-07T04:12:01.435104
MEAN_MOTION    = 14.85639715
ECCENTRICITY   = .0018393
INCLINATION    = 82.5206
RA_OF_ASC_NODE = 129.0378
ARG_OF_PERICENTER = 345.1389
MEAN_ANOMALY   = 70.1463

EPHEMERIS_TYPE = 0
CLASSIFICATION_TYPE = U
NORAD_CAT_ID   = 16882
ELEMENT_SET_NO = 999
REV_AT_EPOCH   = 11899
BSTAR          = .57613E-4
MEAN_MOTION_DOT = .524E-5
MEAN_MOTION_DDOT = 0

CCSDS_OMM_VERS = 2.0
CREATION_DATE  = 
ORIGINATOR     = 

OBJECT_NAME    = AJISAI (EGS)
OBJECT_ID      = 1986-061A
CENTER_NAME    = EARTH
REF_FRAME      = TEME
TIME_SYSTEM    = UTC
MEAN_ELEMENT_THEORY = SGP/SGP4

EPOCH          = 2026-03-07T03:22:45.395616
MEAN_MOTION    = 12.44515641
ECCENTRICITY   = .0011257
INCLINATION    = 50.0080
RA_OF_ASC_NODE = 101.1859
ARG_OF_PERICENTER = 280.4363
MEAN_ANOMALY   = 127.0737

EPHEMERIS_TYPE = 0
CLASSIFICATION_TYPE = U
NORAD_CAT_ID   = 16908
ELEMENT_SET_NO = 999
REV_AT_EPOCH   = 46768
BSTAR          = .60347E-4
MEAN_MOTION_DOT = -.89E-6
MEAN_MOTION_DDOT = 0

CCSDS_OMM_VERS = 2.0
CREATION_DATE  = 
ORIGINATOR     = 

OBJECT_NAME    = SL-14 R/B
OBJECT_ID      = 1987-024B
CENTER_NAME    = EARTH
REF_FRAME      = TEME
TIME_SYSTEM    = UTC
MEAN_ELEMENT_THEORY = SGP/SGP4

EPOCH          = 2026-03-07T03:32:20.950944
MEAN_MOTION    = 14.86128858
ECCENTRICITY   = .0016674
INCLINATION    = 82.5248
RA_OF_ASC_NODE = 95.1538
ARG_OF_PERICENTER = 269.1323
MEAN_ANOMALY   = 90.7983

EPHEMERIS_TYPE = 0
CLASSIFICATION_TYPE = U
NORAD_CAT_ID   = 17567
ELEMENT_SET_NO = 999
REV_AT_EPOCH   = 8775
BSTAR          = .56951E-4
MEAN_MOTION_DOT = .524E-5
MEAN_MOTION_DDOT = 0

CCSDS_OMM_VERS = 2.0
CREATION_DATE  = 
ORIGINATOR     = 

OBJECT_NAME    = COSMOS 1833
OBJECT_ID      = 1987-027A
CENTER_NAME    = EARTH
REF_FRAME      = TEME
TIME_SYSTEM    = UTC
MEAN_ELEMENT_THEORY = SGP/SGP4

EPOCH          = 2026-03-07T04:05:11.415264
MEAN_MOTION    = 14.13055413
ECCENTRICITY   = .0024392
INCLINATION    = 70.9229
RA_OF_ASC_NODE = 331.3137
ARG_OF_PERICENTER = 218.0534
MEAN_ANOMALY   = 141.8865

EPHEMERIS_TYPE = 0
CLASSIFICATION_TYPE = U
NORAD_CAT_ID   = 17589
ELEMENT_SET_NO = 999
REV_AT_EPOCH   = 996
BSTAR          = -.53372E-4
MEAN_MOTION_DOT = -.148E-5
MEAN_MOTION_DDOT = 0

CCSDS_OMM_VERS = 2.0
CREATION_DATE  = 
ORIGINATOR     = 

OBJECT_NAME    = SL-16 R/B
OBJECT_ID      = 1987-027B
CENTER_NAME    = EARTH
REF_FRAME      = TEME
TIME_SYSTEM    = UTC
MEAN_ELEMENT_THEORY = SGP/SGP4

EPOCH          = 2026-03-07T00:14:30.455808
MEAN_MOTION    = 14.17165700
ECCENTRICITY   = .0003547
INCLINATION    = 71.0011
RA_OF_ASC_NODE = 282.1422
ARG_OF_PERICENTER = 148.7522
MEAN_ANOMALY   = 211.3813

EPHEMERIS_TYPE = 0
CLASSIFICATION_TYPE = U
NORAD_CAT_ID   = 17590
ELEMENT_SET_NO = 999
REV_AT_EPOCH   = 1496
BSTAR          = -.1778E-4
MEAN_MOTION_DOT = -.84E-6
MEAN_MOTION_DDOT = 0

CCSDS_OMM_VERS = 2.0
CREATION_DATE  = 
ORIGINATOR     = 

OBJECT_NAME    = SL-14 R/B
OBJECT_ID      = 1987-038B
CENTER_NAME    = EARTH
REF_FRAME      = TEME
TIME_SYSTEM    = UTC
MEAN_ELEMENT_THEORY = SGP/SGP4

EPOCH          = 2026-03-07T03:23:13.706304
MEAN_MOTION    = 14.85366379
ECCENTRICITY   = .0019466
INCLINATION    = 82.5005
RA_OF_ASC_NODE = 299.2089
ARG_OF_PERICENTER = 168.6597
MEAN_ANOMALY   = 191.5061

EPHEMERIS_TYPE = 0
CLASSIFICATION_TYPE = U
NORAD_CAT_ID   = 17912
ELEMENT_SET_NO = 999
REV_AT_EPOCH   = 7885
BSTAR          = .55213E-4
MEAN_MOTION_DOT = .501E-5
MEAN_MOTION_DDOT = 0

CCSDS_OMM_VERS = 2.0
CREATION_DATE  = 
ORIGINATOR     = 

OBJECT_NAME    = COSMOS 1844
OBJECT_ID      = 1987-041A
CENTER_NAME    = EARTH
REF_FRAME      = TEME
TIME_SYSTEM    = UTC
MEAN_ELEMENT_THEORY = SGP/SGP4

EPOCH          = 2026-03-07T03:17:51.640800
MEAN_MOTION    = 14.14552672
ECCENTRICITY   = .0029853
INCLINATION    = 70.8997
RA_OF_ASC_NODE = 39.5581
ARG_OF_PERICENTER = 21.5976
MEAN_ANOMALY   = 338.6397

EPHEMERIS_TYPE = 0
CLASSIFICATION_TYPE = U
NORAD_CAT_ID   = 17973
ELEMENT_SET_NO = 999
REV_AT_EPOCH   = 322
BSTAR          = -.53473E-4
MEAN_MOTION_DOT = -.151E-5
MEAN_MOTION_DDOT = 0

CCSDS_OMM_VERS = 2.0
CREATION_DATE  = 
ORIGINATOR     = 

OBJECT_NAME    = SL-14 R/B
OBJECT_ID      = 1987-055B
CENTER_NAME    = EARTH
REF_FRAME      = TEME
TIME_SYSTEM    = UTC
MEAN_ELEMENT_THEORY = SGP/SGP4

EPOCH          = 2026-03-07T04:27:38.958912
MEAN_MOTION    = 14.85625497
ECCENTRICITY   = .0021367
INCLINATION    = 82.5030
RA_OF_ASC_NODE = 351.3903
ARG_OF_PERICENTER = 25.9090
MEAN_ANOMALY   = 334.3190

EPHEMERIS_TYPE = 0
CLASSIFICATION_TYPE = U
NORAD_CAT_ID   = 18153
ELEMENT_SET_NO = 999
REV_AT_EPOCH   = 6956
BSTAR          = .77835E-4
MEAN_MOTION_DOT = .701E-5
MEAN_MOTION_DDOT = 0

CCSDS_OMM_VERS = 2.0
CREATION_DATE  = 
ORIGINATOR     = 

OBJECT_NAME    = COSMOS 1867
OBJECT_ID      = 1987-060A
CENTER_NAME    = EARTH
REF_FRAME      = TEME
TIME_SYSTEM    = UTC
MEAN_ELEMENT_THEORY = SGP/SGP4

EPOCH          = 2026-03-07T01:35:00.497472
MEAN_MOTION    = 14.31502571
ECCENTRICITY   = .0014467
INCLINATION    = 65.0116
RA_OF_ASC_NODE = 314.0531
ARG_OF_PERICENTER = 278.5048
MEAN_ANOMALY   = 81.4396

EPHEMERIS_TYPE = 0
CLASSIFICATION_TYPE = U
NORAD_CAT_ID   = 18187
ELEMENT_SET_NO = 999
REV_AT_EPOCH   = 1956
BSTAR          = .30865E-4
MEAN_MOTION_DOT = -.18E-6
MEAN_MOTION_DDOT = 0

CCSDS_OMM_VERS = 2.0
CREATION_DATE  = 
ORIGINATOR     = 

OBJECT_NAME    = SL-14 R/B
OBJECT_ID      = 1988-001B
CENTER_NAME    = EARTH
REF_FRAME      = TEME
TIME_SYSTEM    = UTC
MEAN_ELEMENT_THEORY = SGP/SGP4

EPOCH          = 2026-03-06T15:24:39.894624
MEAN_MOTION    = 14.85523654
ECCENTRICITY   = .00166852
INCLINATION    = 82.5147
RA_OF_ASC_NODE = 198.2257
ARG_OF_PERICENTER = 246.5540
MEAN_ANOMALY   = 113.3923

EPHEMERIS_TYPE = 0
CLASSIFICATION_TYPE = U
NORAD_CAT_ID   = 18749
ELEMENT_SET_NO = 999
REV_AT_EPOCH   = 4157
BSTAR          = .95623698E-4
MEAN_MOTION_DOT = .851E-5
MEAN_MOTION_DDOT = 0

CCSDS_OMM_VERS = 2.0
CREATION_DATE  = 
ORIGINATOR     = 

OBJECT_NAME    = COSMOS 1933
OBJECT_ID      = 1988-020A
CENTER_NAME    = EARTH
REF_FRAME      = TEME
TIME_SYSTEM    = UTC
MEAN_ELEMENT_THEORY = SGP/SGP4

EPOCH          = 2026-03-07T00:30:57.300192
MEAN_MOTION    = 15.17951717
ECCENTRICITY   = .0003606
INCLINATION    = 82.5097
RA_OF_ASC_NODE = 253.5522
ARG_OF_PERICENTER = 191.5467
MEAN_ANOMALY   = 168.5685

EPHEMERIS_TYPE = 0
CLASSIFICATION_TYPE = U
NORAD_CAT_ID   = 18958
ELEMENT_SET_NO = 999
REV_AT_EPOCH   = 4982
BSTAR          = .22326E-3
MEAN_MOTION_DOT = .4562E-4
MEAN_MOTION_DDOT = 0

