SL-14 R/B               
1 16792U 86046B   26066.11312296  .00000546  00000+0  60110-4 0  9990
2 16792  82.4782  82.6170 0021818 234.3727 125.5457 14.85587022126022
SL-14 R/B               
1 16882U 86055B   26066.17501661  .00000524  00000+0  57613-4 0  9992
2 16882  82.5206 129.0378 0018393 345.1389  70.1463 14.85639715118995
AJISAI (EGS)            
1 16908U 86061A   26066.14080319 -.00000089  00000+0  60347-4 0  9992
2 16908  50.0080 101.1859 0011257 280.4363 127.0737 12.44515641467687
SL-14 R/B               
1 17567U 87024B   26066.14746471  .00000524  00000+0  56951-4 0  9991
2 17567  82.5248  95.1538 0016674 269.1323  90.7983 14.86128858 87752
COSMOS 1833             
1 17589U 87027A   26066.17027101 -.00000148  00000+0 -53372-4 0  9991
2 17589  70.9229 331.3137 0024392 218.0534 141.8865 14.13055413  9969
SL-16 R/B               
1 17590U 87027B   26066.01007472 -.00000084  00000+0 -17780-4 0  9997
2 17590  71.0011 282.1422 0003547 148.7522 211.3813 14.17165700 14964
SL-14 R/B               
1 17912U 87038B   26066.14113086  .00000501  00000+0  55213-4 0  9995
2 17912  82.5005 299.2089 0019466 168.6597 191.5061 14.85366379 78852
COSMOS 1844             
1 17973U 87041A   26066.13740325 -.00000151  00000+0 -53473-4 0  9996
2 17973  70.8997  39.5581 0029853  21.5976 338.6397 14.14552672  3220
SL-14 R/B               
1 18153U 87055B   26066.18586758  .00000701  00000+0  77835-4 0  9992
2 18153  82.5030 351.3903 0021367  25.9090 334.3190 14.85625497 69566
COSMOS 1867             
1 18187U 87060A   26066.06597798 -.00000018  00000+0  30865-4 0  9992
2 18187  65.0116 314.0531 0014467 278.5048  81.4396 14.31502571 19560
SL-14 R/B               
1 18749U 88001B   26065.64212841  .00000851  00000+0  95624-4 0  9996
2 18749  82.5147 198.2257 0016685 246.5540 113.3923 14.85523654 41576
COSMOS 1933             
1 18958U 88020A   26066.02149653  .00004562  00000+0  22326-3 0  9993
2 18958  82.5097 253.5522 0003606 191.5467 168.5685 15.17951717 49822
